STARLINK-30545          
1 58000U 23153K   26068.37792304 -.00001046  00000+0 -29325-4 0  9991
2 58000  42.9998  68.3822 0001208 226.2346 133.8405 15.26741829134851
STARLINK-36554          
1 67502U 26012K   26067.71268370  .00032833  00000+0  11969-2 0  9992
2 67502  42.9934 319.8184 0000695 339.2059  20.8765 15.27591469  7619
